EUTELSAT 21B            
1 38992U 12062B   25330.80001028  .00000149  00000+0  00000+0 0  9996
2 38992   0.0696   6.0851 0003333 252.5224 116.9679  1.00271157 47798
EUTELSAT 70B            
1 39020U 12069A   25330.85929294 -.00000024  00000+0  00000+0 0  9998
2 39020   0.0634 346.2545 0004484 250.6518 208.9857  1.00271582 47483
EUTELSAT 117 WEST A     
1 39122U 13012A   25330.62988256  .00000006  00000+0  00000+0 0  9997
2 39122   0.0176   7.7601 0002781 234.3274 293.6961  1.00271640 46408
EUTELSAT 7B             
1 39163U 13022A   25330.79706360  .00000067  00000+0  00000+0 0  9992
2 39163   0.0751  19.9514 0003892 294.3132  45.6609  1.00271769 45925
EXPRESS-AT1             
1 39612U 14010A   25330.87809742  .00000098  00000+0  00000+0 0  9990
2 39612   0.0164 282.2345 0000522 204.9918 310.9507  1.00271319 42782
EXPRESS-AT2             
1 39613U 14010B   25330.83517031 -.00000262  00000+0  00000+0 0  9998
2 39613   0.0181 289.0146 0001195   3.5251 214.0228  1.00272197 42471
EUTELSAT 3B             
1 39773U 14030A   25330.79628360  .00000039  00000+0  00000+0 0  9991
2 39773   0.0634 345.7877 0004693 233.5796 136.4023  1.00271481 42034
EUTELSAT 115 WEST B     
1 40425U 15010B   25330.51086443 -.00000006  00000+0  00000+0 0  9991
2 40425   0.0198 150.8046 0000437 166.0059 177.8989  1.00270655 39366
